start=new Date('%Y-%m-57T00:00:00.000Z').valueOf();
sats=[{"DECAY_DATE":null,"LAUNCH_DATE":"2021-05-04","ARG_OF_PERICENTER":"108.5025","MEAN_ELEMENT_THEORY":"SGP4","BSTAR":"-0.00005714300000","OBJECT_NAME":"STARLINK-2591","MEAN_MOTION_DOT":"-0.00001132","RCS_SIZE":"LARGE","NORAD_CAT_ID":"48361","INCLINATION":"53.0542","ELEMENT_SET_NO":"999","REV_AT_EPOCH":"1663","GP_ID":"183187737","CLASSIFICATION_TYPE":"U","ECCENTRICITY":"0.00017080","CENTER_NAME":"EARTH","MEAN_MOTION":"15.06393449","TIME_SYSTEM":"UTC","SEMIMAJOR_AXIS":"6925.369","REF_FRAME":"TEME","RA_OF_ASC_NODE":"259.3081","PERIOD":"95.593","EPHEMERIS_TYPE":"0","TLE_LINE2":"2 48361  53.0542 259.3081 0001708 108.5025 251.6150 15.06393449 16638","MEAN_ANOMALY":"251.6150","PERIAPSIS":"546.051","FILE":"3100831","APOAPSIS":"548.416","OBJECT_ID":"2021-038J","TLE_LINE1":"1 48361U 21038J   21233.44520598 -.00001132  00000-0 -57143-4 0  9997","EPOCH":"2021-08-21T10:41:05.796672","COUNTRY_CODE":"US","MEAN_MOTION_DDOT":"0.0000000000000","SITE":"AFETR","OBJECT_TYPE":"PAYLOAD"},{"GP_ID":"183187828","MEAN_MOTION":"15.04764756","TIME_SYSTEM":"UTC","ECCENTRICITY":"0.00004290","CENTER_NAME":"EARTH","CLASSIFICATION_TYPE":"U","REF_FRAME":"TEME","SEMIMAJOR_AXIS":"6930.365","PERIOD":"95.696","RA_OF_ASC_NODE":"258.3031","MEAN_ANOMALY":"312.9366","TLE_LINE2":"2 48362  53.0538 258.3031 0000429  47.1659 312.9366 15.04764756 16651","EPHEMERIS_TYPE":"0","OBJECT_ID":"2021-038K","FILE":"3100831","APOAPSIS":"552.527","PERIAPSIS":"551.933","COUNTRY_CODE":"US","TLE_LINE1":"1 48362U 21038K   21233.45961234 -.00001324  00000-0 -73479-4 0  9998","EPOCH":"2021-08-21T11:01:50.506176","SITE":"AFETR","OBJECT_TYPE":"PAYLOAD","MEAN_MOTION_DDOT":"0.0000000000000","DECAY_DATE":null,"LAUNCH_DATE":"2021-05-04","ARG_OF_PERICENTER":"47.1659","BSTAR":"-0.00007347900000","OBJECT_NAME":"STARLINK-2578","MEAN_ELEMENT_THEORY":"SGP4","MEAN_MOTION_DOT":"-0.00001324","RCS_SIZE":"LARGE","ELEMENT_SET_NO":"999","INCLINATION":"53.0538","NORAD_CAT_ID":"48362","REV_AT_EPOCH":"1665"},{"ARG_OF_PERICENTER":"86.5764","BSTAR":"0.00003425200000","OBJECT_NAME":"STARLINK-2626","MEAN_ELEMENT_THEORY":"SGP4","DECAY_DATE":null,"LAUNCH_DATE":"2021-05-04","REV_AT_EPOCH":"1671","RCS_SIZE":"LARGE","MEAN_MOTION_DOT":"0.00000229","ELEMENT_SET_NO":"999","NORAD_CAT_ID":"48363","INCLINATION":"53.0535","SEMIMAJOR_AXIS":"6925.325","REF_FRAME":"TEME","RA_OF_ASC_NODE":"254.0263","PERIOD":"95.592","GP_ID":"183187654","ECCENTRICITY":"0.00005930","CENTER_NAME":"EARTH","MEAN_MOTION":"15.06407639","TIME_SYSTEM":"UTC","CLASSIFICATION_TYPE":"U","COUNTRY_CODE":"US","EPOCH":"2021-08-21T11:42:48.053952","TLE_LINE1":"1 48363U 21038L   21233.48805618  .00000229  00000-0  34252-4 0  9992","OBJECT_TYPE":"PAYLOAD","SITE":"AFETR","MEAN_MOTION_DDOT":"0.0000000000000","MEAN_ANOMALY":"273.5293","EPHEMERIS_TYPE":"0","TLE_LINE2":"2 48363  53.0535 254.0263 0000593  86.5764 273.5293 15.06407639 16719","FILE":"3100831","APOAPSIS":"547.601","OBJECT_ID":"2021-038L","PERIAPSIS":"546.779"},{"EPHEMERIS_TYPE":"0","TLE_LINE2":"2 48364  53.0548 254.6412 0000689  65.2669 294.8391 15.06399325 16694","MEAN_ANOMALY":"294.8391","PERIAPSIS":"546.738","FILE":"3100831","APOAPSIS":"547.693","OBJECT_ID":"2021-038M","TLE_LINE1":"1 48364U 21038M   21233.35072455  .00000290  00000-0  38371-4 0  9998","EPOCH":"2021-08-21T08:25:02.601120","COUNTRY_CODE":"US","MEAN_MOTION_DDOT":"0.0000000000000","SITE":"AFETR","OBJECT_TYPE":"PAYLOAD","GP_ID":"183187918","CLASSIFICATION_TYPE":"U","CENTER_NAME":"EARTH","ECCENTRICITY":"0.00006890","MEAN_MOTION":"15.06399325","TIME_SYSTEM":"UTC","SEMIMAJOR_AXIS":"6925.351","REF_FRAME":"TEME","RA_OF_ASC_NODE":"254.6412","PERIOD":"95.592","MEAN_MOTION_DOT":"0.00000290","RCS_SIZE":"LARGE","NORAD_CAT_ID":"48364","INCLINATION":"53.0548","ELEMENT_SET_NO":"999","REV_AT_EPOCH":"1669","DECAY_DATE":null,"LAUNCH_DATE":"2021-05-04","ARG_OF_PERICENTER":"65.2669","MEAN_ELEMENT_THEORY":"SGP4","OBJECT_NAME":"STARLINK-2611","BSTAR":"0.00003837100000"},{"EPHEMERIS_TYPE":"0","TLE_LINE2":"2 48365  53.0549 254.1423 0000649  73.6154 286.4906 15.06394393 16713","MEAN_ANOMALY":"286.4906","PERIAPSIS":"546.781","FILE":"3100831","APOAPSIS":"547.680","OBJECT_ID":"2021-038N","EPOCH":"2021-08-21T11:05:38.113152","TLE_LINE1":"1 48365U 21038N   21233.46224668 -.00001265  00000-0 -66074-4 0  9992","COUNTRY_CODE":"US","MEAN_MOTION_DDOT":"0.0000000000000","OBJECT_TYPE":"PAYLOAD","SITE":"AFETR","GP_ID":"183187384","CLASSIFICATION_TYPE":"U","CENTER_NAME":"EARTH","ECCENTRICITY":"0.00006490","MEAN_MOTION":"15.06394393","TIME_SYSTEM":"UTC","SEMIMAJOR_AXIS":"6925.366","REF_FRAME":"TEME","PERIOD":"95.592","RA_OF_ASC_NODE":"254.1423","MEAN_MOTION_DOT":"-0.00001265","RCS_SIZE":"MEDIUM","NORAD_CAT_ID":"48365","INCLINATION":"53.0549","ELEMENT_SET_NO":"999","REV_AT_EPOCH":"1671","DECAY_DATE":null,"LAUNCH_DATE":"2021-05-04","ARG_OF_PERICENTER":"73.6154","MEAN_ELEMENT_THEORY":"SGP4","OBJECT_NAME":"STARLINK-2608","BSTAR":"-0.00006607400000"},{"ELEMENT_SET_NO":"999","NORAD_CAT_ID":"48366","INCLINATION":"53.0540","MEAN_MOTION_DOT":"0.00000202","RCS_SIZE":"LARGE","REV_AT_EPOCH":"1678","LAUNCH_DATE":"2021-05-04","DECAY_DATE":null,"BSTAR":"0.00003244300000","OBJECT_NAME":"STARLINK-2631","MEAN_ELEMENT_THEORY":"SGP4","ARG_OF_PERICENTER":"48.9139","FILE":"3100831","APOAPSIS":"547.652","OBJECT_ID":"2021-038P","PERIAPSIS":"546.792","MEAN_ANOMALY":"311.1904","EPHEMERIS_TYPE":"0","TLE_LINE2":"2 48366  53.0540 248.9047 0000621  48.9139 311.1904 15.06397367 16781","OBJECT_TYPE":"PAYLOAD","SITE":"AFETR","MEAN_MOTION_DDOT":"0.0000000000000","COUNTRY_CODE":"US","EPOCH":"2021-08-21T12:23:17.354112","TLE_LINE1":"1 48366U 21038P   21233.51617308  .00000202  00000-0  32443-4 0  9997","CENTER_NAME":"EARTH","ECCENTRICITY":"0.00006210","MEAN_MOTION":"15.06397367","TIME_SYSTEM":"UTC","CLASSIFICATION_TYPE":"U","GP_ID":"183187474","RA_OF_ASC_NODE":"248.9047","PERIOD":"95.592","SEMIMAJOR_AXIS":"6925.357","REF_FRAME":"TEME"},{"ELEMENT_SET_NO":"999","NORAD_CAT_ID":"48367","INCLINATION":"53.0554","RCS_SIZE":"LARGE","MEAN_MOTION_DOT":"0.00000658","REV_AT_EPOCH":"1678","LAUNCH_DATE":"2021-05-04","DECAY_DATE":null,"BSTAR":"0.00006306900000","OBJECT_NAME":"STARLINK-2643","MEAN_ELEMENT_THEORY":"SGP4","ARG_OF_PERICENTER":"59.5849","APOAPSIS":"547.783","FILE":"3100831","OBJECT_ID":"2021-038Q","PERIAPSIS":"546.600","MEAN_ANOMALY":"300.5224","EPHEMERIS_TYPE":"0","TLE_LINE2":"2 48367  53.0554 248.9164 0000854  59.5849 300.5224 15.06407324 16783","SITE":"AFETR","OBJECT_TYPE":"PAYLOAD","MEAN_MOTION_DDOT":"0.0000000000000","COUNTRY_CODE":"US","EPOCH":"2021-08-21T12:17:57.071904","TLE_LINE1":"1 48367U 21038Q   21233.51246611  .00000658  00000-0  63069-4 0  9996","CENTER_NAME":"EARTH","ECCENTRICITY":"0.00008540","MEAN_MOTION":"15.06407324","TIME_SYSTEM":"UTC","CLASSIFICATION_TYPE":"U","GP_ID":"183188008","PERIOD":"95.592","RA_OF_ASC_NODE":"248.9164","SEMIMAJOR_AXIS":"6925.326","REF_FRAME":"TEME"},{"LAUNCH_DATE":"2021-05-04","DECAY_DATE":null,"OBJECT_NAME":"STARLINK-2623","BSTAR":"0.00003956500000","MEAN_ELEMENT_THEORY":"SGP4","ARG_OF_PERICENTER":"59.2803","ELEMENT_SET_NO":"999","NORAD_CAT_ID":"48368","INCLINATION":"53.0538","RCS_SIZE":"LARGE","MEAN_MOTION_DOT":"0.00000308","REV_AT_EPOCH":"1679","ECCENTRICITY":"0.00010470","CENTER_NAME":"EARTH","MEAN_MOTION":"15.06392862","TIME_SYSTEM":"UTC","CLASSIFICATION_TYPE":"U","GP_ID":"183187564","PERIOD":"95.593","RA_OF_ASC_NODE":"248.8424","SEMIMAJOR_AXIS":"6925.370","REF_FRAME":"TEME","FILE":"3100831","APOAPSIS":"547.961","OBJECT_ID":"2021-038R","PERIAPSIS":"546.510","MEAN_ANOMALY":"300.8289","EPHEMERIS_TYPE":"0","TLE_LINE2":"2 48368  53.0538 248.8424 0001047  59.2803 300.8289 15.06392862 16791","OBJECT_TYPE":"PAYLOAD","SITE":"AFETR","MEAN_MOTION_DDOT":"0.0000000000000","COUNTRY_CODE":"US","TLE_LINE1":"1 48368U 21038R   21233.52998017  .00000308  00000-0  39565-4 0  9998","EPOCH":"2021-08-21T12:43:10.286688"},{"TLE_LINE2":"2 48369  53.0492 248.9614 0001000  58.1931 301.9155 15.06399012 16789","EPHEMERIS_TYPE":"0","MEAN_ANOMALY":"301.9155","PERIAPSIS":"546.524","OBJECT_ID":"2021-038S","FILE":"3100831","APOAPSIS":"547.909","TLE_LINE1":"1 48369U 21038S   21233.50878484 -.00001548  00000-0 -85091-4 0  9996","EPOCH":"2021-08-21T12:12:39.010176","COUNTRY_CODE":"US","MEAN_MOTION_DDOT":"0.0000000000000","OBJECT_TYPE":"PAYLOAD","SITE":"AFETR","GP_ID":"183187738","CLASSIFICATION_TYPE":"U","TIME_SYSTEM":"UTC","MEAN_MOTION":"15.06399012","CENTER_NAME":"EARTH","ECCENTRICITY":"0.00010000","REF_FRAME":"TEME","SEMIMAJOR_AXIS":"6925.352","RA_OF_ASC_NODE":"248.9614","PERIOD":"95.592","MEAN_MOTION_DOT":"-0.00001548","RCS_SIZE":"LARGE","INCLINATION":"53.0492","NORAD_CAT_ID":"48369","ELEMENT_SET_NO":"999","REV_AT_EPOCH":"1678","DECAY_DATE":null,"LAUNCH_DATE":"2021-05-04","ARG_OF_PERICENTER":"58.1931","MEAN_ELEMENT_THEORY":"SGP4","OBJECT_NAME":"STARLINK-2641","BSTAR":"-0.00008509100000"},{"MEAN_ELEMENT_THEORY":"SGP4","OBJECT_NAME":"STARLINK-2621","BSTAR":"0.00002532400000","ARG_OF_PERICENTER":"42.2459","LAUNCH_DATE":"2021-05-04","DECAY_DATE":null,"REV_AT_EPOCH":"1677","NORAD_CAT_ID":"48370","INCLINATION":"53.0539","ELEMENT_SET_NO":"999","MEAN_MOTION_DOT":"0.00000096","RCS_SIZE":"LARGE","PERIOD":"95.593","RA_OF_ASC_NODE":"249.2528","SEMIMAJOR_AXIS":"6925.378","REF_FRAME":"TEME","CLASSIFICATION_TYPE":"U","ECCENTRICITY":"0.00007860","CENTER_NAME":"EARTH","MEAN_MOTION":"15.06390301","TIME_SYSTEM":"UTC","GP_ID":"183187829","MEAN_MOTION_DDOT":"0.0000000000000","OBJECT_TYPE":"PAYLOAD","SITE":"AFETR","EPOCH":"2021-08-21T10:31:49.223424","TLE_LINE1":"1 48370U 21038T   21233.43876416  .00000096  00000-0  25324-4 0  9991","COUNTRY_CODE":"US","PERIAPSIS":"546.699","FILE":"3100831","APOAPSIS":"547.788","OBJECT_ID":"2021-038T","EPHEMERIS_TYPE":"0","TLE_LINE2":"2 48370  53.0539 249.2528 0000786  42.2459 317.8590 15.06390301 16770","MEAN_ANOMALY":"317.8590"}];
